API VERSION: 1.2
API SOURCE: NASA/JPL Horizons API



*******************************************************************************
Ephemeris / API_USER Mon Oct 30 14:04:09 2023 Pasadena, USA      / Horizons    
*******************************************************************************
Target body name: Moon (301)                      {source: DE441}
Center body name: Earth (399)                     {source: DE441}
Center-site name: GEOCENTRIC
*******************************************************************************
Start time      : A.D. 2036-Jan-01 00:00:00.0000 UT      
Stop  time      : A.D. 2037-Jan-01 00:00:00.0000 UT      
Step-size       : 60 minutes
*******************************************************************************
Target pole/equ : MOON_ME                         {East-longitude positive}
Target radii    : 1737.4, 1737.4, 1737.4 km       {Equator_a, b, pole_c}       
Center geodetic : 0.0, 0.0, -6378.137             {E-lon(deg),Lat(deg),Alt(km)}
Center cylindric: 0.0, 0.0, 0.0                   {E-lon(deg),Dxy(km),Dz(km)}
Center pole/equ : ITRF93                          {East-longitude positive}
Center radii    : 6378.137, 6378.137, 6356.752 km {Equator_a, b, pole_c}       
Target primary  : Earth
Vis. interferer : MOON (R_eq= 1737.400) km        {source: DE441}
Rel. light bend : Sun                             {source: DE441}
Rel. lght bnd GM: 1.3271E+11 km^3/s^2                                          
Atmos refraction: NO (AIRLESS)
RA format       : HMS
Time format     : CAL 
Calendar mode   : Mixed Julian/Gregorian
EOP file        : eop.231027.p240119                                           
EOP coverage    : DATA-BASED 1962-JAN-20 TO 2023-OCT-27. PREDICTS-> 2024-JAN-18
Units conversion: 1 au= 149597870.700 km, c= 299792.458 km/s, 1 day= 86400.0 s 
Table cut-offs 1: Elevation (-90.0deg=NO ),Airmass (>38.000=NO), Daylight (NO )
Table cut-offs 2: Solar elongation (  0.0,180.0=NO ),Local Hour Angle( 0.0=NO )
Table cut-offs 3: RA/DEC angular rate (     0.0=NO )                           
Table format    : Comma Separated Values (spreadsheet)
***********************************************************************************************************************************************
 Date__(UT)__HR:MN, , , R.A._(ICRF), DEC__(ICRF),      Illu%,  ObsSub-LON, ObsSub-LAT,  SunSub-LON, SunSub-LAT,    NP.ang,  NP.dist,     S-T-O,
***********************************************************************************************************************************************
$$SOE
 2036-Jan-30 18:00, , , 22 29 47.23, -10 23 32.3,    4.85651,  355.578765,   1.097473,  150.163795,   0.470521,  336.8405,  892.833,  154.5431,
 2036-Jan-30 19:00, , , 22 31 45.43, -10 14 59.2,    5.03170,  355.531366,   1.156684,  149.655927,   0.469511,  336.7639,  893.043,  154.0800,
 2036-Jan-30 20:00, , , 22 33 43.57, -10 06 23.3,    5.20992,  355.484210,   1.215832,  149.148064,   0.468500,  336.6892,  893.255,  153.6167,
 2036-Jan-30 21:00, , , 22 35 41.67, -09 57 44.5,    5.39118,  355.437301,   1.274913,  148.640205,   0.467486,  336.6162,  893.468,  153.1532,
 2036-Jan-30 22:00, , , 22 37 39.71, -09 49 02.9,    5.57545,  355.390642,   1.333924,  148.132351,   0.466470,  336.5450,  893.682,  152.6893,
 2036-Jan-30 23:00, , , 22 39 37.70, -09 40 18.5,    5.76274,  355.344237,   1.392859,  147.624502,   0.465453,  336.4756,  893.898,  152.2253,
 2036-Jan-31 00:00, , , 22 41 35.65, -09 31 31.4,    5.95303,  355.298088,   1.451714,  147.116657,   0.464433,  336.4080,  894.115,  151.7610,
 2036-Jan-31 01:00, , , 22 43 33.55, -09 22 41.5,    6.14633,  355.252199,   1.510485,  146.608817,   0.463412,  336.3422,  894.334,  151.2964,
 2036-Jan-31 02:00, , , 22 45 31.40, -09 13 49.0,    6.34262,  355.206574,   1.569166,  146.100982,   0.462389,  336.2782,  894.554,  150.8315,
 2036-Jan-31 03:00, , , 22 47 29.21, -09 04 53.8,    6.54189,  355.161215,   1.627755,  145.593151,   0.461363,  336.2160,  894.775,  150.3664,
 2036-Jan-31 04:00, , , 22 49 26.98, -08 55 56.0,    6.74414,  355.116127,   1.686245,  145.085326,   0.460336,  336.1556,  894.998,  149.9011,
 2036-Jan-31 05:00, , , 22 51 24.71, -08 46 55.7,    6.94936,  355.071312,   1.744634,  144.577506,   0.459307,  336.0970,  895.223,  149.4355,
 2036-Jan-31 06:00, , , 22 53 22.40, -08 37 52.8,    7.15754,  355.026774,   1.802915,  144.069692,   0.458276,  336.0403,  895.449,  148.9696,
 2036-Jan-31 07:00, , , 22 55 20.05, -08 28 47.4,    7.36867,  354.982517,   1.861086,  143.561882,   0.457243,  335.9853,  895.676,  148.5034,
 2036-Jan-31 08:00, , , 22 57 17.67, -08 19 39.5,    7.58275,  354.938544,   1.919141,  143.054078,   0.456208,  335.9322,  895.905,  148.0370,
 2036-Jan-31 09:00, , , 22 59 15.26, -08 10 29.2,    7.79976,  354.894858,   1.977075,  142.546279,   0.455171,  335.8810,  896.136,  147.5703,
 2036-Jan-31 10:00, , , 23 01 12.81, -08 01 16.6,    8.01970,  354.851462,   2.034885,  142.038486,   0.454132,  335.8315,  896.368,  147.1034,
 2036-Jan-31 11:00, , , 23 03 10.34, -07 52 01.5,    8.24255,  354.808361,   2.092566,  141.530699,   0.453092,  335.7840,  896.602,  146.6362,
 2036-Jan-31 12:00, , , 23 05 07.84, -07 42 44.2,    8.46832,  354.765558,   2.150113,  141.022917,   0.452049,  335.7382,  896.837,  146.1687,
 2036-Jan-31 13:00, , , 23 07 05.31, -07 33 24.5,    8.69698,  354.723056,   2.207522,  140.515141,   0.451005,  335.6943,  897.074,  145.7009,
 2036-Jan-31 14:00, , , 23 09 02.77, -07 24 02.6,    8.92854,  354.680859,   2.264788,  140.007371,   0.449958,  335.6523,  897.313,  145.2328,
 2036-Jan-31 15:00, , , 23 11 00.20, -07 14 38.5,    9.16297,  354.638970,   2.321907,  139.499607,   0.448910,  335.6121,  897.553,  144.7645,
 2036-Jan-31 16:00, , , 23 12 57.61, -07 05 12.2,    9.40028,  354.597393,   2.378875,  138.991848,   0.447859,  335.5738,  897.795,  144.2959,
 2036-Jan-31 17:00, , , 23 14 55.00, -06 55 43.8,    9.64044,  354.556132,   2.435686,  138.484096,   0.446807,  335.5373,  898.038,  143.8270,
 2036-Jan-31 18:00, , , 23 16 52.38, -06 46 13.2,    9.88346,  354.515190,   2.492336,  137.976350,   0.445753,  335.5027,  898.283,  143.3579,
 2036-Jan-31 19:00, , , 23 18 49.75, -06 36 40.6,   10.12932,  354.474570,   2.548822,  137.468610,   0.444696,  335.4700,  898.530,  142.8884,
 2036-Jan-31 20:00, , , 23 20 47.11, -06 27 06.0,   10.37800,  354.434277,   2.605137,  136.960877,   0.443638,  335.4391,  898.779,  142.4187,
 2036-Jan-31 21:00, , , 23 22 44.45, -06 17 29.4,   10.62951,  354.394314,   2.661279,  136.453150,   0.442578,  335.4101,  899.030,  141.9486,
 2036-Jan-31 22:00, , , 23 24 41.79, -06 07 50.8,   10.88382,  354.354684,   2.717241,  135.945429,   0.441516,  335.3830,  899.282,  141.4783,
 2036-Jan-31 23:00, , , 23 26 39.13, -05 58 10.3,   11.14094,  354.315391,   2.773021,  135.437715,   0.440452,  335.3578,  899.536,  141.0077,
 2036-Feb-01 00:00, , , 23 28 36.47, -05 48 27.9,   11.40083,  354.276439,   2.828612,  134.930008,   0.439386,  335.3345,  899.791,  140.5368,
 2036-Feb-01 01:00, , , 23 30 33.80, -05 38 43.7,   11.66351,  354.237832,   2.884011,  134.422307,   0.438319,  335.3130,  900.049,  140.0655,
 2036-Feb-01 02:00, , , 23 32 31.14, -05 28 57.7,   11.92895,  354.199573,   2.939213,  133.914613,   0.437249,  335.2934,  900.308,  139.5940,
 2036-Feb-01 03:00, , , 23 34 28.49, -05 19 09.9,   12.19714,  354.161666,   2.994214,  133.406926,   0.436177,  335.2758,  900.570,  139.1222,
 2036-Feb-01 04:00, , , 23 36 25.84, -05 09 20.4,   12.46807,  354.124114,   3.049009,  132.899245,   0.435104,  335.2600,  900.833,  138.6500,
 2036-Feb-01 05:00, , , 23 38 23.20, -04 59 29.1,   12.74173,  354.086922,   3.103593,  132.391572,   0.434028,  335.2461,  901.098,  138.1776,
 2036-Feb-01 06:00, , , 23 40 20.57, -04 49 36.3,   13.01810,  354.050092,   3.157962,  131.883906,   0.432950,  335.2341,  901.365,  137.7048,
 2036-Feb-01 07:00, , , 23 42 17.96, -04 39 41.8,   13.29718,  354.013630,   3.212112,  131.376247,   0.431871,  335.2240,  901.634,  137.2317,
 2036-Feb-01 08:00, , , 23 44 15.37, -04 29 45.7,   13.57896,  353.977538,   3.266037,  130.868595,   0.430789,  335.2159,  901.904,  136.7584,
 2036-Feb-01 09:00, , , 23 46 12.79, -04 19 48.1,   13.86341,  353.941820,   3.319734,  130.360950,   0.429706,  335.2096,  902.177,  136.2846,
 2036-Feb-01 10:00, , , 23 48 10.24, -04 09 49.0,   14.15053,  353.906480,   3.373197,  129.853313,   0.428621,  335.2053,  902.452,  135.8106,
 2036-Feb-01 11:00, , , 23 50 07.71, -03 59 48.4,   14.44030,  353.871521,   3.426423,  129.345683,   0.427533,  335.2028,  902.729,  135.3362,
 2036-Feb-01 12:00, , , 23 52 05.21, -03 49 46.4,   14.73271,  353.836949,   3.479407,  128.838061,   0.426444,  335.2023,  903.008,  134.8615,
 2036-Feb-01 13:00, , , 23 54 02.74, -03 39 43.0,   15.02775,  353.802765,   3.532143,  128.330446,   0.425353,  335.2037,  903.289,  134.3865,
 2036-Feb-01 14:00, , , 23 56 00.30, -03 29 38.3,   15.32540,  353.768975,   3.584628,  127.822839,   0.424259,  335.2070,  903.571,  133.9111,
 2036-Feb-01 15:00, , , 23 57 57.89, -03 19 32.2,   15.62566,  353.735582,   3.636857,  127.315239,   0.423164,  335.2122,  903.857,  133.4354,
 2036-Feb-01 16:00, , , 23 59 55.53, -03 09 24.9,   15.92850,  353.702589,   3.688826,  126.807648,   0.422067,  335.2194,  904.144,  132.9594,
 2036-Feb-01 17:00, , , 00 01 53.20, -02 59 16.4,   16.23391,  353.670001,   3.740530,  126.300064,   0.420968,  335.2285,  904.433,  132.4830,
 2036-Feb-01 18:00, , , 00 03 50.91, -02 49 06.6,   16.54188,  353.637821,   3.791964,  125.792488,   0.419867,  335.2395,  904.724,  132.0063,
 2036-Feb-01 19:00, , , 00 05 48.68, -02 38 55.7,   16.85240,  353.606053,   3.843124,  125.284920,   0.418764,  335.2524,  905.018,  131.5292,
 2036-Feb-01 20:00, , , 00 07 46.49, -02 28 43.7,   17.16544,  353.574701,   3.894005,  124.777360,   0.417659,  335.2673,  905.314,  131.0518,
